{"type": "FeatureCollection", "features": [ {"type": "Feature", "properties": {"norad_id": 66608, "name": "STARLINK-36036", "group": "last-30-days", "lat": 0.8922392709872639, "lon": -171.22924266375844, "alt_km": 415.1637995042156, "timestamp": "2025-12-13T13:34:33.864576+00:00", "meta": {"OBJECT_NAME": "STARLINK-36036", "OBJECT_ID": "2025-270W", "EPOCH": "2025-12-12T20:00:01.999872", "MEAN_MOTION": 15.50691328, "ECCENTRICITY": 0.0001455, "INCLINATION": 42.9995, "RA_OF_ASC_NODE": 192.0973, "ARG_OF_PERICENTER": 275.2805, "MEAN_ANOMALY": 313.5048, "EPHEMERIS_TYPE": 0, "CLASSIFICATION_TYPE": "U", "NORAD_CAT_ID": 66608, "ELEMENT_SET_NO": 999, "REV_AT_EPOCH": 425, "BSTAR": -0.0038655508, "MEAN_MOTION_DOT": -0.00221702, "MEAN_MOTION_DDOT": 0}, "tle": {"line1": "1 66608U 25270W   25346.83335648 -.00221702  00000+0 -38656-2 0  9997", "line2": "2 66608  42.9995 192.0973 0001455 275.2805 313.5048 15.50691328  4256"}}, "geometry": {"type": "Point", "coordinates": [-171.22924266375844, 0.8922392709872639]}}, {"type": "Feature", "properties": {"norad_id": 66609, "name": "STARLINK-36034", "group": "last-30-days", "lat": 2.2411858429037137, "lon": -169.78446348412987, "alt_km": 414.8943939945875, "timestamp": "2025-12-13T13:34:33.864586+00:00", "meta": {"OBJECT_NAME": "STARLINK-36034", "OBJECT_ID": "2025-270X", "EPOCH": "2025-12-12T20:00:01.999872", "MEAN_MOTION": 15.50618938, "ECCENTRICITY": 0.00015964, "INCLINATION": 42.9994, "RA_OF_ASC_NODE": 192.0927, "ARG_OF_PERICENTER": 267.8078, "MEAN_ANOMALY": 322.9303, "EPHEMERIS_TYPE": 0, "CLASSIFICATION_TYPE": "U", "NORAD_CAT_ID": 66609, "ELEMENT_SET_NO": 999, "REV_AT_EPOCH": 425, "BSTAR": -0.0019599725, "MEAN_MOTION_DOT": -0.00113831, "MEAN_MOTION_DDOT": 0}, "tle": {"line1": "1 66609U 25270X   25346.83335648 -.00113831  00000+0 -19600-2 0  9999", "line2": "2 66609  42.9994 192.0927 0001596 267.8078 322.9303 15.50618938  4254"}}, "geometry": {"type": "Point", "coordinates": [-169.78446348412987, 2.2411858429037137]}}, {"type": "Feature", "properties": {"norad_id": 66610, "name": "STARLINK-35680", "group": "last-30-days", "lat": 3.538568004809729, "lon": -168.3914062909916, "alt_km": 414.38113249042544, "timestamp": "2025-12-13T13:34:33.864595+00:00", "meta": {"OBJECT_NAME": "STARLINK-35680", "OBJECT_ID": "2025-270Y", "EPOCH": "2025-12-12T20:00:01.999872", "MEAN_MOTION": 15.50593059, "ECCENTRICITY": 0.00018185, "INCLINATION": 42.9996, "RA_OF_ASC_NODE": 192.0877, "ARG_OF_PERICENTER": 284.949, "MEAN_ANOMALY": 307.7242, "EPHEMERIS_TYPE": 0, "CLASSIFICATION_TYPE": "U", "NORAD_CAT_ID": 66610, "ELEMENT_SET_NO": 999, "REV_AT_EPOCH": 452, "BSTAR": -0.0016341784, "MEAN_MOTION_DOT": -0.00095106, "MEAN_MOTION_DDOT": 0}, "tle": {"line1": "1 66610U 25270Y   25346.83335648 -.00095106  00000+0 -16342-2 0  9995", "line2": "2 66610  42.9996 192.0877 0001818 284.9490 307.7242 15.50593059  4526"}}, "geometry": {"type": "Point", "coordinates": [-168.3914062909916, 3.538568004809729]}}, {"type": "Feature", "properties": {"norad_id": 66611, "name": "STARLINK-35583", "group": "last-30-days", "lat": 4.849608020742417, "lon": -166.97815845045054, "alt_km": 414.4850936925486, "timestamp": "2025-12-13T13:34:33.864612+00:00", "meta": {"OBJECT_NAME": "STARLINK-35583", "OBJECT_ID": "2025-270Z", "EPOCH": "2025-12-12T20:00:01.999872", "MEAN_MOTION": 15.50622913, "ECCENTRICITY": 0.00017378, "INCLINATION": 42.9994, "RA_OF_ASC_NODE": 192.082, "ARG_OF_PERICENTER": 274.1579, "MEAN_ANOMALY": 320.4083, "EPHEMERIS_TYPE": 0, "CLASSIFICATION_TYPE": "U", "NORAD_CAT_ID": 66611, "ELEMENT_SET_NO": 999, "REV_AT_EPOCH": 452, "BSTAR": -0.0020136779, "MEAN_MOTION_DOT": -0.00116914, "MEAN_MOTION_DDOT": 0}, "tle": {"line1": "1 66611U 25270Z   25346.83335648 -.00116914  00000+0 -20137-2 0  9994", "line2": "2 66611  42.9994 192.0820 0001737 274.1579 320.4083 15.50622913  4529"}}, "geometry": {"type": "Point", "coordinates": [-166.97815845045054, 4.849608020742417]}}, {"type": "Feature", "properties": {"norad_id": 66612, "name": "STARLINK-36039", "group": "last-30-days", "lat": -13.352082443002914, "lon": 173.1063393454098, "alt_km": 440.81559830657625, "timestamp": "2025-12-13T13:34:33.864622+00:00", "meta": {"OBJECT_NAME": "STARLINK-36039", "OBJECT_ID": "2025-270AA", "EPOCH": "2025-12-12T20:00:01.999872", "MEAN_MOTION": 15.4535857, "ECCENTRICITY": 0.00012665, "INCLINATION": 42.9992, "RA_OF_ASC_NODE": 192.1031, "ARG_OF_PERICENTER": 255.1423, "MEAN_ANOMALY": 330.4922, "EPHEMERIS_TYPE": 0, "CLASSIFICATION_TYPE": "U", "NORAD_CAT_ID": 66612, "ELEMENT_SET_NO": 999, "REV_AT_EPOCH": 441, "BSTAR": -0.047261468, "MEAN_MOTION_DOT": -0.02053608, "MEAN_MOTION_DDOT": 0}, "tle": {"line1": "1 66612U 25270AA  25346.83335648 -.02053608  00000+0 -47261-1 0  9993", "line2": "2 66612  42.9992 192.1031 0001266 255.1423 330.4922 15.45358570  4417"}}, "geometry": {"type": "Point", "coordinates": [173.1063393454098, -13.352082443002914]}}, {"type": "Feature", "properties": {"norad_id": 66613, "name": "STARLINK-36037", "group": "last-30-days", "lat": -1.0118073867226625, "lon": -173.26765819352622, "alt_km": 430.9585711072441, "timestamp": "2025-12-13T13:34:33.864632+00:00", "meta": {"OBJECT_NAME": "STARLINK-36037", "OBJECT_ID": "2025-270AB", "EPOCH": "2025-12-12T20:00:01.999872", "MEAN_MOTION": 15.4828678, "ECCENTRICITY": 0.0001338, "INCLINATION": 42.9995, "RA_OF_ASC_NODE": 192.077, "ARG_OF_PERICENTER": 267.5762, "MEAN_ANOMALY": 328.7091, "EPHEMERIS_TYPE": 0, "CLASSIFICATION_TYPE": "U", "NORAD_CAT_ID": 66613, "ELEMENT_SET_NO": 999, "REV_AT_EPOCH": 441, "BSTAR": -0.043492075, "MEAN_MOTION_DOT": -0.02089217, "MEAN_MOTION_DDOT": 0}, "tle": {"line1": "1 66613U 25270AB  25346.83335648 -.02089217  00000+0 -43492-1 0  9991", "line2": "2 66613  42.9995 192.0770 0001338 267.5762 328.7091 15.48286780  4416"}}, "geometry": {"type": "Point", "coordinates": [-173.26765819352622, -1.0118073867226625]}}, {"type": "Feature", "properties": {"norad_id": 66614, "name": "STARLINK-36040", "group": "last-30-days", "lat": 10.041745571041902, "lon": -161.26647738890338, "alt_km": 413.66764648329354, "timestamp": "2025-12-13T13:34:33.864643+00:00", "meta": {"OBJECT_NAME": "STARLINK-36040", "OBJECT_ID": "2025-270AC", "EPOCH": "2025-12-12T20:00:01.999872", "MEAN_MOTION": 15.50570352, "ECCENTRICITY": 0.00015787, "INCLINATION": 42.9995, "RA_OF_ASC_NODE": 192.0631, "ARG_OF_PERICENTER": 277.4452, "MEAN_ANOMALY": 324.8127, "EPHEMERIS_TYPE": 0, "CLASSIFICATION_TYPE": "U", "NORAD_CAT_ID": 66614, "ELEMENT_SET_NO": 999, "REV_AT_EPOCH": 425, "BSTAR": -0.00076212295, "MEAN_MOTION_DOT": -0.00044783, "MEAN_MOTION_DDOT": 0}, "tle": {"line1": "1 66614U 25270AC  25346.83335648 -.00044783  00000+0 -76212-3 0  9997", "line2": "2 66614  42.9995 192.0631 0001578 277.4452 324.8127 15.50570352  4258"}}, "geometry": {"type": "Point", "coordinates": [-161.26647738890338, 10.041745571041902]}}, {"type": "Feature", "properties": {"norad_id": 66615, "name": "STARLINK-35988", "group": "last-30-days", "lat": 8.775868842089059, "lon": -162.68137790220834, "alt_km": 414.067197428948, "timestamp": "2025-12-13T13:34:33.864651+00:00", "meta": {"OBJECT_NAME": "STARLINK-35988", "OBJECT_ID": "2025-270AD", "EPOCH": "2025-12-12T20:00:01.999872", "MEAN_MOTION": 15.50631732, "ECCENTRICITY": 0.00017203, "INCLINATION": 42.9996, "RA_OF_ASC_NODE": 192.0669, "ARG_OF_PERICENTER": 266.3788, "MEAN_ANOMALY": 333.9199, "EPHEMERIS_TYPE": 0, "CLASSIFICATION_TYPE": "U", "NORAD_CAT_ID": 66615, "ELEMENT_SET_NO": 999, "REV_AT_EPOCH": 425, "BSTAR": -0.0015590831, "MEAN_MOTION_DOT": -0.00090924, "MEAN_MOTION_DDOT": 0}, "tle": {"line1": "1 66615U 25270AD  25346.83335648 -.00090924  00000+0 -15591-2 0  9998", "line2": "2 66615  42.9996 192.0669 0001720 266.3788 333.9199 15.50631732  4259"}}, "geometry": {"type": "Point", "coordinates": [-162.68137790220834, 8.775868842089059]}}, {"type": "Feature", "properties": {"norad_id": 66616, "name": "STARLINK-35391", "group": "last-30-days", "lat": 11.308350416187833, "lon": -159.8337392281445, "alt_km": 413.6147248981388, "timestamp": "2025-12-13T13:34:33.864662+00:00", "meta": {"OBJECT_NAME": "STARLINK-35391", "OBJECT_ID": "2025-270AE", "EPOCH": "2025-12-12T20:00:01.999872", "MEAN_MOTION": 15.50585879, "ECCENTRICITY": 0.00016373, "INCLINATION": 42.9995, "RA_OF_ASC_NODE": 192.0584, "ARG_OF_PERICENTER": 276.9134, "MEAN_ANOMALY": 327.259, "EPHEMERIS_TYPE": 0, "CLASSIFICATION_TYPE": "U", "NORAD_CAT_ID": 66616, "ELEMENT_SET_NO": 999, "REV_AT_EPOCH": 452, "BSTAR": -0.0012916662, "MEAN_MOTION_DOT": -0.00075411, "MEAN_MOTION_DDOT": 0}, "tle": {"line1": "1 66616U 25270AE  25346.83335648 -.00075411  00000+0 -12917-2 0  9992", "line2": "2 66616  42.9995 192.0584 0001637 276.9134 327.2590 15.50585879  4525"}}, "geometry": {"type": "Point", "coordinates": [-159.8337392281445, 11.308350416187833]}}, {"type": "Feature", "properties": {"norad_id": 66617, "name": "STARLINK-35940", "group": "last-30-days", "lat": 13.98148026549024, "lon": -165.95772241339003, "alt_km": 417.2739005255862, "timestamp": "2025-12-13T13:34:33.864671+00:00", "meta": {"OBJECT_NAME": "STARLINK-35940", "OBJECT_ID": "2025-271A", "EPOCH": "2025-12-12T20:00:01.999872", "MEAN_MOTION": 15.4923067, "ECCENTRICITY": 8.633e-05, "INCLINATION": 53.1594, "RA_OF_ASC_NODE": 186.786, "ARG_OF_PERICENTER": 73.6732, "MEAN_ANOMALY": 177.2652, "EPHEMERIS_TYPE": 0, "CLASSIFICATION_TYPE": "U", "NORAD_CAT_ID": 66617, "ELEMENT_SET_NO": 999, "REV_AT_EPOCH": 425, "BSTAR": 0.001275147, "MEAN_MOTION_DOT": 0.0007092, "MEAN_MOTION_DDOT": 0}, "tle": {"line1": "1 66617U 25271A   25346.83335648  .00070920  00000+0  12751-2 0  9998", "line2": "2 66617  53.1594 186.7860 0000863  73.6732 177.2652 15.49230670  4254"}}, "geometry": {"type": "Point", "coordinates": [-165.95772241339003, 13.98148026549024]}}]}